GSAT0222 (GALILEO 26)   
1 43565U 18060B   23268.26156266 -.00000089  00000+0  00000+0 0  9999
2 43565  57.2909   8.6384 0003978 219.4623 140.5279  1.70475771 32237
GSAT0219 (GALILEO 23)   
1 43566U 18060C   23267.31070046 -.00000085  00000+0  00000+0 0  9992
2 43566  57.2900   8.6662 0002535 256.4137 103.5787  1.70476004 32195
GSAT0220 (GALILEO 24)   
1 43567U 18060D   23269.29087864 -.00000092  00000+0  00000+0 0  9996
2 43567  57.2899   8.6132 0002588 250.4692 109.5210  1.70475659 32218
BEIDOU-3 M13            
1 43622U 18072A   23266.87600763  .00000047  00000+0  00000+0 0  9990
2 43622  55.7858  95.8112 0004100 294.8942  65.1318  1.86231447 34081
BEIDOU-3 M14            
1 43623U 18072B   23269.96317566  .00000054  00000+0  00000+0 0  9998
2 43623  55.7902  95.7006 0002499 350.4149   9.6502  1.86231424 34139
GPS BIII-1              
1 43873U 18109A   23270.06638703  .00000051  00000+0  00000+0 0  9995
2 43873  55.1997 131.4669 0026171 190.3125 328.6787  2.00569471 35082
METEOR-M2 2             
1 44387U 19038A   23270.35044082  .00000118  00000+0  71282-4 0  9990
2 44387  98.7882 234.1020 0001869  41.2736 318.8583 14.23808489219846
GPS BIII-2              
1 44506U 19056A   23269.71612819 -.00000092  00000+0  00000+0 0  9997
2 44506  55.8239  10.5557 0037647 186.1681 339.1314  2.00565622 30122
BEIDOU-3 M23            
1 44542U 19061A   23269.26788624 -.00000007  00000+0  00000+0 0  9997
2 44542  54.4831 216.3181 0008482 344.5699  15.3743  1.86231418 27264
BEIDOU-3 M24            
1 44543U 19061B   23269.68244017 -.00000011  00000+0  00000+0 0  9992
2 44543  54.4815 216.2734 0005765 330.3534 219.4487  1.86231653 27276
BEIDOU-3 M21            
1 44793U 19078A   23269.65026748 -.00000069  00000+0  00000+0 0  9996
2 44793  54.7432 334.5357 0004747  13.2331 346.8430  1.86232053 26128
BEIDOU-3 M22            
1 44794U 19078B   23269.78078004 -.00000070  00000+0  00000+0 0  9995
2 44794  54.7169 334.5128 0002785 358.7880   1.2751  1.86232505 26139
ELEKTRO-L 3             
1 44903U 19095A   23270.04424226 -.00000111  00000+0  00000+0 0  9994
2 44903   0.0638  49.5392 0001598 135.5441 272.4778  1.00270586 13726
GPS BIII-3              
1 45854U 20041A   23269.61620774  .00000004  00000+0  00000+0 0  9990
2 45854  55.9023  67.8448 0037119 186.7416 209.6296  2.00562692 24094
COSMOS 2547             
1 46805U 20075A   23269.11284228  .00000017  00000+0  00000+0 0  9993
2 46805  64.6143 225.7716 0008098 243.8253 116.0724  2.13102769 22704
GPS BIII-4              
1 46826U 20078A   23270.34622529  .00000007  00000+0  00000+0 0  9995
2 46826  54.3018 251.1295 0036422 194.9499 344.1145  2.00562638 21564
GSAT0223 (GALILEO 27)   
1 49809U 21116A   23267.41475998 -.00000085  00000+0  00000+0 0  9990
2 49809  57.2810   8.5598 0003498 188.0129 190.8503  1.70475882 11193
GSAT0224 (GALILEO 28)   
1 49810U 21116B   23268.38835812 -.00000089  00000+0  00000+0 0  9998
2 49810  57.2819   8.5318 0002960 179.5637 189.3032  1.70475874 11232
GOES 18                 
1 51850U 22021A   23270.41248126  .00000082  00000+0  00000+0 0  9996
2 51850   0.0108 111.0976 0000475  85.3859 180.9484  1.00270247  5843
